C/2014 F3 (Sheppard-Trujillo),e,6.5232,327.0068,2.0817,16.24242,0.0150566,0.64877921,353.3638,02/20.0/2020,2000,g  6.0,4.0
# From MPC105541
C/2014 HU195 (Valdes-TOTAS),e,5.8173,115.7408,145.3688,22.12000,0.0094739,0.76791581,16.4564,02/20.0/2020,2000,g 10.5,4.0
# From MPC 98560
P/2014 L2 (NEOWISE),e,5.1945,149.3555,182.6262,6.304156,0.0622678,0.64774913,127.2484,02/20.0/2020,2000,g 12.0,4.0
# From MPC 90769
P/2014 L3 (Hill),e,6.2770,115.4727,178.6024,8.163057,0.0422595,0.77393788,87.0601,02/20.0/2020,2000,g 16.0,4.0
# From MPC103844
C/2014 M1 (PANSTARRS),e,160.2188,234.7749,337.1247,8788,0.0000012,0.99936318,0.0000,08/27.5686/2015,2000,g  9.0,4.0
# From MPC 91614
P/2014 M4 (PANSTARRS),e,3.3345,263.2848,147.9798,5.877624,0.0691674,0.59345858,130.2705,02/20.0/2020,2000,g 15.0,4.0
# From MPC103844
P/2014 MG4 (Spacewatch-PANSTARRS),e,9.3702,311.7391,299.0489,5.011710,0.0878466,0.26002413,214.2079,02/20.0/2020,2000,g  9.5,4.0
# From MPC103844
C/2014 N3 (NEOWISE),e,61.6592,19.8501,353.4024,1595,0.0000155,0.99757316,0.0000,03/12.6598/2015,2000,g  7.0,4.0
# From MPC 98560
P/2014 O3 (PANSTARRS),e,7.8091,87.6396,204.4886,7.558214,0.0474324,0.38640370,101.1239,02/20.0/2020,2000,g 10.5,4.0
# From MPEC 2020-AA5
C/2014 OE4 (PANSTARRS),h,12/12.3827/2016,81.3375,240.3990,65.8545,1.002465,6.247501,2000,11.0,2.0
# From MPC100578
C/2014 Q1 (PANSTARRS),e,43.0636,9.0574,119.9467,974.1034,0.0000324,0.99967310,0.0000,07/05.2675/2015,2000,g  8.0,4.0
# From MPC115880
C/2014 R3 (PANSTARRS),e,90.8983,334.0919,113.4621,7406,0.0000015,0.99901749,0.0000,08/08.7163/2016,2000,g  6.5,4.0
# From MPC 91615
P/2014 R5 (Lemmon-PANSTARRS),e,1.0883,126.5507,213.6977,4.057422,0.1205949,0.41322735,250.1051,02/20.0/2020,2000,g 15.0,4.0
# From MPC104790
C/2014 S2 (PANSTARRS),e,64.4674,8.1039,87.3602,171.5314,0.0004387,0.98785756,0.0000,12/09.0398/2015,2000,g 10.0,4.0
# From MPC 91616
P/2014 U4 (PANSTARRS),e,6.4296,11.9629,347.7561,3.506787,0.1500859,0.46550248,306.0317,02/20.0/2020,2000,g 18.0,4.0
# From MPC 95211
P/2014 V1 (PANSTARRS),e,22.5029,166.2094,177.5496,5.482752,0.0767726,0.53368852,142.4334,02/20.0/2020,2000,g 14.0,4.0
# From MPC 93586
P/2014 W1 (PANSTARRS),e,8.8401,246.2448,152.3355,4.459878,0.1046453,0.38867839,213.4780,02/20.0/2020,2000,g 15.5,4.0
# From MPC110493
C/2014 W2 (PANSTARRS),e,82.0331,69.9649,84.9381,605.4705,0.0000662,0.99558672,0.0000,03/08.6362/2016,2000,g  7.5,4.0
# From MPC105542
P/2014 W4 (PANSTARRS),e,15.2677,33.3484,67.9664,6.603427,0.0580831,0.35218115,87.8005,02/20.0/2020,2000,g 11.0,4.0
# From MPC 95211
C/2014 W6 (Catalina),h,03/18.1975/2015,53.4905,338.1992,209.9479,1.001261,3.097151,2000,10.5,4.0
# From MPC 91616
C/2014 W8 (PANSTARRS),e,41.9607,224.8314,227.9933,170.4550,0.0004429,0.97054880,0.0000,09/08.9021/2015,2000,g 11.0,4.0
# From MPC115880
C/2014 W10 (PANSTARRS),e,82.8658,43.1320,43.6715,860.0397,0.0000391,0.99119200,0.0000,03/04.8284/2016,2000,g  8.0,4.0
# From MPC107047
C/2014 W11 (PANSTARRS),e,16.3472,295.2284,226.6483,10.03912,0.0309856,0.66948262,51.4890,02/20.0/2020,2000,g 10.0,4.0
# From MPC 93587
P/2014 W12 (Gibbs),e,8.5141,299.2884,36.9219,3.517378,0.1494086,0.52393123,287.4762,02/20.0/2020,2000,g 15.0,4.0
# From MPC 94281
P/2014 X1 (Elenin),e,25.9988,61.5015,34.0256,6.212273,0.0636544,0.70858914,119.3220,02/20.0/2020,2000,g 15.0,4.0
# From MPC 96866
C/2014 XB8 (PANSTARRS),e,149.7909,37.4852,351.2942,624.5208,0.0000632,0.99518942,0.0000,04/03.9997/2015,2000,g 13.5,4.0
# From MPC100579
C/2014 Y1 (PANSTARRS),h,01/16.8278/2016,14.9175,19.5250,182.3426,1.001669,2.250706,2000,9.5,4.0
# From MPC 96279
C/2015 A1 (PANSTARRS),e,80.2074,341.0317,244.9333,20.23954,0.0108244,0.90132436,19.5387,02/20.0/2020,2000,g 14.5,4.0
# From MPC 93587
C/2015 A2 (PANSTARRS),p,08/01.8353/2015,109.1696,208.8369,5.341055,258.5042,2000,10.5,4.0
# From MPC 92275
P/2015 A3 (PANSTARRS),e,172.5279,277.1590,249.2075,7.807612,0.0451780,0.85180009,82.5315,02/20.0/2020,2000,g 20.0,4.0
# From MPC 99270
P/2015 B1 (PANSTARRS),e,18.0234,353.0776,188.7317,9.503668,0.0336409,0.36966375,54.3885,02/20.0/2020,2000,g  8.5,4.0
# From MPC108592
C/2015 B2 (PANSTARRS),h,05/06.1142/2016,105.0172,341.8727,284.7194,1.000231,3.368487,2000,9.5,4.0
# From MPC109141
P/2015 B4 (Lemmon-PANSTARRS),e,1.7605,266.0263,227.5215,8.539250,0.0394979,0.56100374,72.6417,02/20.0/2020,2000,g 11.0,4.0
# From MPC101096
P/2015 C1 (TOTAS-Gibbs),e,13.8846,348.8343,178.3981,6.589678,0.0582650,0.56036834,102.4154,02/20.0/2020,2000,g 12.5,4.0
# From MPC 95211
C/2015 C2 (SWAN),e,94.5399,49.5020,333.9567,345.4148,0.0001535,0.99795718,0.0000,03/03.9353/2015,2000,g 14.0,4.0
# From MPC119995
C/2015 D3 (PANSTARRS),h,05/03.1186/2016,128.5428,157.0360,2.9973,1.003852,8.149257,2000,5.5,4.0
# From MPC109141
P/2015 D5 (Kowalski),e,20.4936,74.0608,39.9923,8.979935,0.0366264,0.48904193,78.7305,02/20.0/2020,2000,g  9.0,4.0
# From MPC 96866
P/2015 D6 (Lemmon-PANSTARRS),e,20.2096,46.1260,125.2723,7.153120,0.0515182,0.36260244,87.0056,02/20.0/2020,2000,g 10.5,4.0
# From MPC112390
C/2015 ER61 (PANSTARRS),e,6.3459,235.2020,68.2254,457.9606,0.0001006,0.99772526,0.0000,05/10.2742/2017,2000,g 11.0,2.0
# From MPEC 2018-BF5
C/2015 E61-B (PANSTARRS),e,6.3475,235.2371,68.3146,1140,0.0000256,0.99908462,0.0000,05/10.2518/2017,2000,g 13.5,2.0
# From MPC109142
P/2015 F1 (PANSTARRS),e,2.8026,40.4071,187.4037,3.524002,0.1489875,0.27827025,268.3272,02/20.0/2020,2000,g 12.5,4.0
# From MPC 98561
C/2015 F2 (Polonia),e,28.7277,262.4495,352.2282,39.15417,0.0040229,0.96897922,7.0707,02/20.0/2020,2000,g 16.5,4.0
# From MPC 96279
C/2015 F3 (SWAN),e,73.5477,31.7168,57.4474,179.7760,0.0004089,0.99535789,0.0000,03/07.4828/2015,2000,g 14.5,4.0
# From MPC115880
C/2015 F4 (Jacques),e,48.8047,285.9193,36.3191,117.1254,0.0007775,0.98599902,0.0000,08/11.8167/2015,2000,g 11.0,4.0
# From MPC 95212
C/2015 F5 (SWAN-Xingming),e,149.3769,287.7500,13.4773,15.57188,0.0160396,0.97758185,0.0000,03/28.3778/2015,2000,g 15.5,4.0
# From MPC102096
C/2015 GX (PANSTARRS),e,90.2632,235.4932,108.8168,16.16546,0.0151643,0.87861773,24.8308,02/20.0/2020,2000,g 14.0,4.0
# From MPC109142
C/2015 G2 (MASTER),h,05/24.7482/2015,147.6616,110.2454,257.6477,1.000613,0.779424,2000,11.0,4.0
# From MPC 98561
C/2015 H1 (Bressi),e,140.6713,325.8506,21.9379,32.04427,0.0054335,0.93951345,9.7307,02/20.0/2020,2000,g 13.5,4.0
# From MPC117068
C/2015 H2 (PANSTARRS),h,09/14.1899/2016,33.6708,350.6911,288.0275,1.005472,4.972923,2000,7.5,4.0
# From MPC100280
P/2015 HG16 (PANSTARRS),e,18.8532,59.2043,47.2354,4.753350,0.0951052,0.34885006,196.5112,02/20.0/2020,2000,g 12.5,4.0
# From MPC101096
C/2015 J2 (PANSTARRS),e,17.2744,56.7515,203.8917,293.5679,0.0001959,0.98524562,0.0000,09/09.9914/2015,2000,g 10.0,4.0
# From MPC 95733
P/2015 J3 (NEOWISE),e,8.1308,111.3516,129.4296,3.349544,0.1607776,0.55450947,291.3331,02/20.0/2020,2000,g 16.5,4.0
# From MPC 95733
C/2015 K2 (PANSTARRS),e,29.0836,223.7183,15.9395,305.6278,0.0001845,0.99521370,0.0000,06/08.9373/2015,2000,g 20.0,4.0
# From MPC 95733
C/2015 K4 (PANSTARRS),h,05/01.8482/2015,80.2629,250.7307,357.7289,1.000909,2.017440,2000,15.0,4.0
# From MPC 95213
P/2015 K5 (PANSTARRS),e,39.9473,134.1925,106.2725,6.716955,0.0566168,0.55414329,97.3489,02/20.0/2020,2000,g 13.5,4.0
# From MPC111767
C/2015 LC2 (PANSTARRS),h,05/02.2820/2015,93.7216,223.5995,342.0281,1.000406,5.905587,2000,8.0,4.0
# From MPC 95734
C/2015 M1 (PANSTARRS),e,57.3302,100.1744,164.1775,449.2049,0.0001035,0.99532806,0.0000,05/15.8903/2015,2000,g 16.5,4.0
# From MPC107684
P/2015 M2 (PANSTARRS),e,3.9736,86.5785,225.1767,7.222520,0.0507775,0.18104343,82.6716,02/20.0/2020,2000,g  8.5,4.0
# From MPC115881
C/2015 M3 (PANSTARRS),e,65.8790,143.0154,123.8719,138.5338,0.0006045,0.97431886,0.0000,08/26.2659/2015,2000,g 12.0,4.0
# From MPC112390
C/2015 O1 (PANSTARRS),h,02/19.3283/2018,127.2227,299.8518,89.6294,1.000621,3.730302,2000,6.5,4.0
# From MPC 96280
C/2015 P3 (SWAN),e,58.2004,87.9898,133.1062,265.7993,0.0002274,0.99728477,0.0000,07/27.4647/2015,2000,g 15.5,4.0
# From MPC 99819
P/2015 P4 (PANSTARRS),e,8.7179,104.7666,280.6029,6.052443,0.0661924,0.58401524,98.8304,02/20.0/2020,2000,g 14.0,4.0
# From MPC102952
P/2015 PD229 (Cameron-ISON),e,2.0259,342.6543,352.3433,7.179087,0.0512389,0.32789888,84.5792,02/20.0/2020,2000,g 11.5,2.0
# From MPC 99819
P/2015 Q1 (Scotti),e,22.4057,203.0438,199.8786,3.469335,0.1525228,0.47885207,249.4782,02/20.0/2020,2000,g 14.0,4.0
# From MPC 96867
P/2015 Q2 (Pimentel),e,146.4687,228.3758,244.4105,7.344517,0.0495176,0.75129539,80.5917,02/20.0/2020,2000,g 15.5,4.0
# From MPC 98562
P/2015 R1 (PANSTARRS),e,22.6737,48.4809,300.3824,5.881566,0.0690979,0.63360052,117.4122,02/20.0/2020,2000,g 14.0,4.0
# From MPC 95734
P/2015 R2 (PANSTARRS),e,15.4718,168.6135,149.7028,4.489727,0.1036034,0.45251376,177.7094,02/20.0/2020,2000,g 14.5,4.0
# From MPC117068
C/2015 T2 (PANSTARRS),e,124.5485,51.0480,30.6725,2771,0.0000068,0.99749749,0.0000,05/18.9521/2017,2000,g  8.0,4.0
# From MPC 96280
P/2015 T3 (PANSTARRS),e,13.0937,120.5019,178.6330,4.326181,0.1095335,0.50818108,359.9227,12/21.0/2014,2000,g 14.0,4.0
# From MPC102953
C/2015 T4 (PANSTARRS),e,87.9649,251.8013,270.0572,80.39304,0.0013673,0.97142719,0.0000,06/17.5024/2016,2000,g 11.0,4.0
# From MPC102097
C/2015 T5 (Sheppard-Tholen),e,11.0492,311.0794,61.7970,28.06490,0.0066292,0.66747235,9.8771,02/20.0/2020,2000,g  7.5,4.0
# From MPC102953
P/2015 TO19 (Lemmon-PANSTARRS),e,6.4993,321.6430,89.2015,4.557730,0.1012934,0.35774649,146.5245,02/20.0/2020,2000,g 14.0,4.0
# From MPC110080
P/2015 TP200 (LINEAR),e,8.7733,6.9810,82.7244,7.282794,0.0501484,0.53491130,60.7055,02/20.0/2020,2000,g 11.0,4.0
# From MPC101097
C/2015 TQ209 (LINEAR),e,11.3071,223.3993,282.1383,693.1392,0.0000540,0.99795804,0.0000,08/26.3410/2016,2000,g 10.5,4.0
# From MPC115881
C/2015 V1 (PANSTARRS),e,139.2236,197.1888,179.6210,4592,0.0000032,0.99907057,0.0000,12/17.3639/2017,2000,g  6.5,4.0
# From MPC112390
C/2015 V2 (Johnson),h,06/12.1940/2017,49.8723,69.8583,164.9762,1.001836,1.640957,2000,5.0,4.0
# From MPC102953
